{"fetched_at":"2026-07-15T06:35:42.366Z","source":"https://celestrak.org/NORAD/elements/gp.php?GROUP=spire&FORMAT=JSON","constellation":"spire","records":[{"OBJECT_NAME":"LEMUR-2-MYRA","OBJECT_ID":"2025-276EC","EPOCH":"2026-07-14T17:40:20.487936","CLASSIFICATION_TYPE":"U","MEAN_MOTION":15.00586112,"ECCENTRICITY":0.00186921,"INCLINATION":97.5222,"RA_OF_ASC_NODE":265.7188,"ARG_OF_PERICENTER":55.6926,"MEAN_ANOMALY":304.6064,"EPHEMERIS_TYPE":0,"NORAD_CAT_ID":66787,"ELEMENT_SET_NO":999,"REV_AT_EPOCH":3434,"BSTAR":0.00027269512,"MEAN_MOTION_DOT":0.00003398,"MEAN_MOTION_DDOT":0},{"OBJECT_NAME":"LEMUR-2 FIKRETDENGIZ","OBJECT_ID":"2026-004A","EPOCH":"2026-07-14T13:30:21.975840","CLASSIFICATION_TYPE":"U","MEAN_MOTION":14.88514452,"ECCENTRICITY":0.0010235,"INCLINATION":97.8023,"RA_OF_ASC_NODE":193.7044,"ARG_OF_PERICENTER":57.7047,"MEAN_ANOMALY":302.516,"EPHEMERIS_TYPE":0,"NORAD_CAT_ID":67363,"ELEMENT_SET_NO":999,"REV_AT_EPOCH":2735,"BSTAR":0.000214,"MEAN_MOTION_DOT":0.00001936,"MEAN_MOTION_DDOT":0},{"OBJECT_NAME":"TWILIGHT-1 OBJECT B","OBJECT_ID":"2026-004B","EPOCH":"2026-07-14T22:27:38.836224","CLASSIFICATION_TYPE":"U","MEAN_MOTION":14.87793091,"ECCENTRICITY":0.00097592,"INCLINATION":97.8075,"RA_OF_ASC_NODE":194.0728,"ARG_OF_PERICENTER":46.7281,"MEAN_ANOMALY":313.4749,"EPHEMERIS_TYPE":0,"NORAD_CAT_ID":67364,"ELEMENT_SET_NO":999,"REV_AT_EPOCH":2741,"BSTAR":0.00010602585,"MEAN_MOTION_DOT":0.00000914,"MEAN_MOTION_DDOT":0},{"OBJECT_NAME":"LEMUR-2-MARIO-SOUSA","OBJECT_ID":"2026-004C","EPOCH":"2026-07-14T22:42:13.021056","CLASSIFICATION_TYPE":"U","MEAN_MOTION":14.88726344,"ECCENTRICITY":0.00098469,"INCLINATION":97.7997,"RA_OF_ASC_NODE":194.077,"ARG_OF_PERICENTER":57.7457,"MEAN_ANOMALY":302.4713,"EPHEMERIS_TYPE":0,"NORAD_CAT_ID":67365,"ELEMENT_SET_NO":999,"REV_AT_EPOCH":2742,"BSTAR":0.00028591694,"MEAN_MOTION_DOT":0.00002619,"MEAN_MOTION_DDOT":0},{"OBJECT_NAME":"LEMUR-2-SONNENBLUME","OBJECT_ID":"2026-004E","EPOCH":"2026-07-14T22:46:15.491424","CLASSIFICATION_TYPE":"U","MEAN_MOTION":14.88452492,"ECCENTRICITY":0.00094085,"INCLINATION":97.8,"RA_OF_ASC_NODE":194.0524,"ARG_OF_PERICENTER":58.8207,"MEAN_ANOMALY":301.3931,"EPHEMERIS_TYPE":0,"NORAD_CAT_ID":67367,"ELEMENT_SET_NO":999,"REV_AT_EPOCH":2742,"BSTAR":0.00016136144,"MEAN_MOTION_DOT":0.00001444,"MEAN_MOTION_DDOT":0},{"OBJECT_NAME":"LEMUR-2-WOBLER","OBJECT_ID":"2026-004F","EPOCH":"2026-07-14T22:30:53.576640","CLASSIFICATION_TYPE":"U","MEAN_MOTION":14.88696543,"ECCENTRICITY":0.0009485,"INCLINATION":97.8047,"RA_OF_ASC_NODE":194.1927,"ARG_OF_PERICENTER":50.9582,"MEAN_ANOMALY":309.2478,"EPHEMERIS_TYPE":0,"NORAD_CAT_ID":67368,"ELEMENT_SET_NO":999,"REV_AT_EPOCH":2742,"BSTAR":0.00024566812,"MEAN_MOTION_DOT":0.0000224,"MEAN_MOTION_DDOT":0},{"OBJECT_NAME":"LEMUR-2-GRAM-E-SUE","OBJECT_ID":"2026-004H","EPOCH":"2026-07-14T22:19:32.034432","CLASSIFICATION_TYPE":"U","MEAN_MOTION":14.88588831,"ECCENTRICITY":0.00086233,"INCLINATION":97.7986,"RA_OF_ASC_NODE":194.0508,"ARG_OF_PERICENTER":61.5395,"MEAN_ANOMALY":298.669,"EPHEMERIS_TYPE":0,"NORAD_CAT_ID":67370,"ELEMENT_SET_NO":999,"REV_AT_EPOCH":2742,"BSTAR":0.00014038176,"MEAN_MOTION_DOT":0.00001253,"MEAN_MOTION_DDOT":0},{"OBJECT_NAME":"LEMUR-2-KATIE","OBJECT_ID":"2026-004AA","EPOCH":"2026-07-14T21:17:59.266464","CLASSIFICATION_TYPE":"U","MEAN_MOTION":14.90250246,"ECCENTRICITY":0.00035685,"INCLINATION":97.8043,"RA_OF_ASC_NODE":194.5592,"ARG_OF_PERICENTER":34.508,"MEAN_ANOMALY":325.6369,"EPHEMERIS_TYPE":0,"NORAD_CAT_ID":67387,"ELEMENT_SET_NO":999,"REV_AT_EPOCH":2743,"BSTAR":0.00029720517,"MEAN_MOTION_DOT":0.00002829,"MEAN_MOTION_DDOT":0},{"OBJECT_NAME":"LEMUR-2-HCS-BAZUS","OBJECT_ID":"2026-004AB","EPOCH":"2026-07-14T21:15:37.358784","CLASSIFICATION_TYPE":"U","MEAN_MOTION":14.90260521,"ECCENTRICITY":0.00030262,"INCLINATION":97.8038,"RA_OF_ASC_NODE":194.5358,"ARG_OF_PERICENTER":33.5507,"MEAN_ANOMALY":326.5902,"EPHEMERIS_TYPE":0,"NORAD_CAT_ID":67388,"ELEMENT_SET_NO":999,"REV_AT_EPOCH":2743,"BSTAR":0.00016582226,"MEAN_MOTION_DOT":0.00001554,"MEAN_MOTION_DDOT":0}]}
