LEMUR-2-MYRA            
1 66787U 25276EC  26195.73634824  .00003398  00000+0  27270-3 0  9999
2 66787  97.5222 265.7188 0018692  55.6926 304.6064 15.00586112 34345
LEMUR-2 FIKRETDENGIZ    
1 67363U 26004A   26195.56275435  .00001936  00000+0  21400-3 0  9995
2 67363  97.8023 193.7044 0010235  57.7047 302.5160 14.88514452 27351
TWILIGHT-1 OBJECT B     
1 67364U 26004B   26195.93586616  .00000914  00000+0  10603-3 0  9991
2 67364  97.8075 194.0728 0009759  46.7281 313.4749 14.87793091 27417
LEMUR-2-MARIO-SOUSA     
1 67365U 26004C   26195.94598404  .00002619  00000+0  28592-3 0  9991
2 67365  97.7997 194.0770 0009846  57.7457 302.4713 14.88726344 27429
LEMUR-2-SONNENBLUME     
1 67367U 26004E   26195.94879041  .00001444  00000+0  16136-3 0  9998
2 67367  97.8000 194.0524 0009408  58.8207 301.3931 14.88452492 27423
LEMUR-2-WOBLER          
1 67368U 26004F   26195.93812010  .00002240  00000+0  24567-3 0  9993
2 67368  97.8047 194.1927 0009485  50.9582 309.2478 14.88696543 27427
LEMUR-2-GRAM-E-SUE      
1 67370U 26004H   26195.93023188  .00001253  00000+0  14038-3 0  9991
2 67370  97.7986 194.0508 0008623  61.5395 298.6690 14.88588831 27425
LEMUR-2-KATIE           
1 67387U 26004AA  26195.88749151  .00002829  00000+0  29721-3 0  9993
2 67387  97.8043 194.5592 0003568  34.5080 325.6369 14.90250246 27434
LEMUR-2-HCS-BAZUS       
1 67388U 26004AB  26195.88584906  .00001554  00000+0  16582-3 0  9994
2 67388  97.8038 194.5358 0003026  33.5507 326.5902 14.90260521 27431
